{
  "norad_id": 62569,
  "name": "STARLINK-32715",
  "history": [
    {
      "epoch": "2026-03-28T13:09:12.976704Z",
      "apogee_km": 484.02055420577835,
      "perigee_km": 482.0243684720954,
      "latitude_deg": 6.177606801289938e-05,
      "longitude_deg": 163.0720611474281,
      "height_km": 482.60269113053846,
      "semi_major_axis_km": 6861.159461338936,
      "eccentricity": 0.00014547,
      "inclination_deg": 42.9986,
      "raan_deg": 186.343,
      "arg_perigee_deg": 281.346,
      "mean_anomaly_deg": 78.7229,
      "mean_motion_rev_day": 15.27588895
    }
  ]
}