{"fetched_at":"2026-03-29T02:12:04Z","count":15717,"tles":[{"name":"STARLINK-32715","line1":"1 62569U 25006R   26087.54806686  .00032290  00000+0  11775-2 0  9995","line2":"2 62569  42.9986 186.3430 0001454 281.3460  78.7229 15.27588895 67748","category":"Starlink"}]}